OPS 6582 (TRANSIT 5B-5) 
1 00965U 64083D   22146.59684480  .00000069  00000+0  83969-4 0  9993
2 00965  90.0268 195.3759 0039023 294.1401 187.2693 13.56778912843127
OSCAR 7 (AO-7)          
1 07530U 74089B   22146.73920109 -.00000035  00000+0  65874-4 0  9991
2 07530 101.9031 126.5417 0012650  83.4659  92.3961 12.53655085174986
UOSAT 2 (UO-11)         
1 14781U 84021B   22145.52098221  .00001300  00000+0  16346-3 0  9995
2 14781  97.6160 134.0022 0009546  45.4975 314.7018 14.83643170 36642
NOAA 9                  
1 15427U 84123A   22146.55940566  .00000129  00000+0  88356-4 0  9997
2 15427  99.0436 118.6023 0014019 225.0535 246.0920 14.16198503933747
LUSAT (LO-19)           
1 20442U 90005G   22146.66610155  .00000136  00000+0  66301-4 0  9990
2 20442  98.7924 111.1966 0010815 229.5434 130.4807 14.33058435690040
ITAMSAT (IO-26)         
1 22826U 93061D   22146.78507055  .00000124  00000+0  65433-4 0  9992
2 22826  98.8825 177.2438 0010117 100.6644 259.5678 14.30515703495565
RADIO ROSTO (RS-15)     
1 23439U 94085A   22146.57914139 -.00000037  00000+0  15882-3 0  9998
2 23439  64.8160 180.9956 0167755 276.2093  81.9745 11.27572160129026
JAS-2 (FO-29)           
1 24278U 96046B   22145.28887785  .00000001  00000+0  38613-4 0  9990
2 24278  98.5173 172.1594 0349944 343.5996  15.4048 13.53114855272479
NOAA 15                 
1 25338U 98030A   22146.81078338  .00000214  00000+0  10777-3 0  9995
2 25338  98.6453 176.6279 0010382   7.8522 352.2818 14.26130003250189
TECHSAT 1B (GO-32)      
1 25397U 98043D   22146.43222982  .00000082  00000+0  55405-4 0  9999
2 25397  98.8163  96.8437 0001755 133.1671 226.9654 14.23753987240290
ISS (ZARYA)             
1 25544U 98067A   22146.91905333  .00010532  00000+0  19422-3 0  9999
2 25544  51.6431  81.9230 0005046 161.1990 275.6833 15.49703421341881
ORSTED                  
1 25635U 99008B   22146.58923912  .00000346  00000+0  90028-4 0  9996
2 25635  96.4631  16.6181 0136582 250.9320 107.7044 14.48464647227384
PHASE 3D (AO-40)        
1 26609U 00072B   22145.48694978 -.00000201  00000+0  00000+0 0  9993
2 26609   6.9398 275.0185 7992213   9.5530 359.0350  1.25588764 98865
PCSAT (NO-44)           
1 26931U 01043C   22145.38284697  .00000106  00000+0  72021-4 0  9992
2 26931  67.0499 117.9456 0007900 267.0293  92.9905 14.30700696 78102
SAUDISAT 1C (SO-50)     
1 27607U 02058C   22146.23522426  .00000752  00000+0  12409-3 0  9990
2 27607  64.5560   9.8918 0077177 298.7674  60.5691 14.76105647 45093
CUTE-1 (CO-55)          
1 27844U 03031E   22146.76146688  .00000301  00000+0  15439-3 0  9991
2 27844  98.6787 154.7757 0010291 158.2014 201.9603 14.22443486980828
CUBESAT XI-IV (CO-57)   
1 27848U 03031J   22146.50661118  .00000291  00000+0  15137-3 0  9990
2 27848  98.6830 155.0486 0009912 172.5808 187.5518 14.22001727980598
MOZHAYETS 4 (RS-22)     
1 27939U 03042A   22146.84942582  .00001054  00000+0  19534-3 0  9990
2 27939  98.1879 287.5798 0011627 276.5887  83.3995 14.67333306997873
INMARSAT 4-F1           
1 28628U 05009A   22146.43375896 -.00000264  00000+0  00000+0 0  9991
2 28628   3.5980  34.8712 0002886  36.5855 112.1587  1.00271040 62800
NOAA 18                 
1 28654U 05018A   22146.74660594  .00000159  00000+0  10992-3 0  9993
2 28654  98.9495 217.1991 0014771  37.2225 322.9967 14.12733648877001
CUBESAT XI-V            
1 28895U 05043F   22146.44770015  .00001258  00000+0  24702-3 0  9990
2 28895  98.1031 278.1696 0016139 206.4037 153.6344 14.64309580884193
METOP-A                 
1 29499U 06044A   22146.61270538  .00001846  00000+0  25154-3 0  9992
2 29499  98.4519 190.5230 0199370  76.6536  39.9100 14.67183423810328
CARTOSAT-2 (IRS-P7)     
1 29710U 07001B   22146.56014452  .00025161  00000+0  63092-3 0  9996
2 29710  97.8643 250.7737 0154367 134.0884 227.3181 15.28608868832899
FALCONSAT-3             
1 30776U 07006E   22146.40015271  .00039611  00000+0  63432-3 0  9991
2 30776  35.4327  44.5995 0003906 274.4991  85.5295 15.52068688846156
CAPE-1                  
1 31130U 07012P   22145.78321999  .00001554  00000+0  33488-3 0  9993
2 31130  98.2682  86.5072 0095435   4.4563 355.7463 14.57080209801795
CARTOSAT-2A             
1 32783U 08021A   22146.83236449  .00000786  00000+0  11425-3 0  9994
2 32783  97.9665 207.2824 0011921 233.3521 126.6563 14.78678577759825
CUTE-1.7+APD II (CO-65) 
1 32785U 08021C   22146.39673964  .00002873  00000+0  30679-3 0  9995
2 32785  97.6553 117.9471 0011290 312.5078  47.5185 14.89523944763208
COMPASS-1               
1 32787U 08021E   22146.70693841  .00004914  00000+0  44635-3 0  9993
2 32787  97.5612 129.4504 0010637 209.6402 150.4218 14.95666091764852
AAUSAT-II               
1 32788U 08021F   22146.51919344  .00005693  00000+0  49466-3 0  9994
2 32788  97.5329 132.6153 0010843 184.6199 175.4925 14.97331644765159
DELFI-C3 (DO-64)        
1 32789U 08021G   22146.53389565  .00014603  00000+0  82058-3 0  9998
2 32789  97.3406 173.6307 0011621  50.5524 309.6734 15.13341763768613
SEEDS II (CO-66)        
1 32791U 08021J   22145.71705201  .00003324  00000+0  32828-3 0  9997
2 32791  97.6094 122.8087 0011001 265.4137  94.5826 14.92564750763809
YUBILEINY (RS-30)       
1 32953U 08025A   22146.80934911  .00000021  00000+0  80971-4 0  9998
2 32953  82.5047 197.3896 0018088 310.0105  49.9386 12.43110144635642
FENGYUN 3A              
1 32958U 08026A   22146.60472218  .00000129  00000+0  82052-4 0  9990
2 32958  98.5011 110.1314 0009978  86.6667 273.5651 14.18717588725234
PRISM (HITOMI)          
1 33493U 09002B   22145.45987611  .00005942  00000+0  48656-3 0  9999
2 33493  98.2311 130.7271 0012369 237.5894 122.4131 14.99660779725543
STARS (KUKAI)           
1 33498U 09002G   22146.27699024  .00001842  00000+0  25094-3 0  9999
2 33498  98.1715  37.9008 0009984 330.9994  29.0661 14.79939688718154
KKS-1 (KISEKI)          
1 33499U 09002H   22146.82040748  .00000964  00000+0  14783-3 0  9991
2 33499  98.2209  28.5047 0009768  31.9326 328.2473 14.75987895717489
NOAA 19                 
1 33591U 09005A   22146.81618838  .00000200  00000+0  13339-3 0  9996
2 33591  99.1492 180.4968 0012944 246.9239 113.0568 14.12568729685398
SWISSCUBE               
1 35932U 09051B   22146.81025273  .00000816  00000+0  19305-3 0  9995
2 35932  98.5713   2.1424 0008669 110.3335 249.8794 14.56839230672981
BEESAT-1                
1 35933U 09051C   22146.49084559  .00000753  00000+0  17882-3 0  9990
2 35933  98.5652   3.4582 0006740 120.6412 239.5451 14.56858367672978
ITUPSAT1                
1 35935U 09051E   22146.83847944  .00000631  00000+0  15457-3 0  9996
2 35935  98.5757   3.8771 0008995 124.4040 235.8008 14.55969638672760
XIWANG-1 (HOPE-1)       
1 36122U 09072B   22146.76230378 -.00000050  00000+0 -18501-4 0  9998
2 36122 100.1813 118.9202 0007939  35.7335 324.4309 13.16369124598066
CARTOSAT-2B             
1 36795U 10035A   22146.73518371  .00001039  00000+0  14871-3 0  9995
2 36795  97.9611 207.3438 0012901 318.5944  41.4283 14.78669197640852
TISAT 1                 
1 36799U 10035E   22146.80264410  .00003621  00000+0  35563-3 0  9999
2 36799  98.1848 356.3949 0012266 160.4561 199.7129 14.92799528644731
FENGYUN 3B              
1 37214U 10059A   22146.84440399  .00000015  00000+0  31912-4 0  9993
2 37214  99.0922 152.4343 0023139  57.5865 302.7545 14.14254918597901
JUGNU                   
1 37839U 11058B   22146.79010257  .00000437  00000+0  90602-4 0  9995
2 37839  19.9620 306.8675 0018890 278.1532 110.9750 14.12783096549189
SRMSAT                  
1 37841U 11058D   22146.35506027  .00000427  00000+0  89731-4 0  9995
2 37841  19.9735  28.4918 0011943 101.6213  55.7769 14.10752402548117
M-CUBED & EXP-1 PRIME   
1 37855U 11061F   22146.27203655  .00018140  00000+0  79598-3 0  9996
2 37855 101.7057 253.6325 0154814 129.0044 232.5074 15.11878901577889
HORYU-2                 
1 38340U 12025D   22146.18586494  .00001750  00000+0  25815-3 0  9994
2 38340  98.1943 224.2486 0010093 302.2123  57.8107 14.76590467528954
METOP-B                 
1 38771U 12049A   22146.81239118  .00000110  00000+0  70473-4 0  9996
2 38771  98.6968 206.8838 0001955 105.6261 347.6901 14.21484498502653
SARAL                   
1 39086U 13009A   22146.52056269  .00000112  00000+0  57832-4 0  9991
2 39086  98.5476 332.4873 0001232  34.8473 325.2791 14.32042401483346
AAUSAT 3                
1 39087U 13009B   22146.81629569  .00000771  00000+0  27881-3 0  9994
2 39087  98.4018 346.9213 0012344 336.9649  23.0951 14.36162438484476
STRAND-1                
1 39090U 13009E   22145.01517121  .00000195  00000+0  83039-4 0  9997
2 39090  98.4060 343.7629 0008836 349.1890  10.9105 14.35290165484034
BRITE-AUSTRIA           
1 39091U 13009F   22146.81213153  .00000187  00000+0  80120-4 0  9994
2 39091  98.4075 344.6787 0010203 349.5409  10.5563 14.35268857484337
UNIBRITE                
1 39092U 13009G   22146.76211669  .00000175  00000+0  76336-4 0  9990
2 39092  98.4108 344.3884 0009022 345.6698  14.4230 14.35139396484287
SOMP                    
1 39134U 13015E   22146.37951274  .00017050  00000+0  61767-3 0  9995
2 39134  64.8604 134.3079 0034262 284.6035  75.1297 15.27958798503484
BEESAT-3                
1 39135U 13015F   22146.40344324  .00011967  00000+0  49821-3 0  9990
2 39135  64.8650 169.7592 0036991 292.0971  67.6232 15.23453435502759
BEESAT-2                
1 39136U 13015G   22146.43761584  .00009797  00000+0  42755-3 0  9992
2 39136  64.8742 177.6676 0014921 297.5543  62.4070 15.22516308503041
NEE-01 PEGASO           
1 39151U 13018B   22146.55232121  .00001509  00000+0  20186-3 0  9992
2 39151  97.9888 252.2932 0015960 330.4796  29.5514 14.80892543490449
CUBEBUG-1 (CAPITAN BETO)
1 39153U 13018D   22146.56242943  .00001769  00000+0  23166-3 0  9997
2 39153  98.0097 256.6439 0015696 324.7344  35.2829 14.81578615490597
